[{"OBJECT_NAME":"STARLINK-35083","OBJECT_ID":"2025-191M","EPOCH":"2026-03-09T14:41:27.478176","MEAN_MOTION":15.05660245,"ECCENTRICITY":0.00023,"INCLINATION":97.6017,"RA_OF_ASC_NODE":301.3881,"ARG_OF_PERICENTER":80.2183,"MEAN_ANOMALY":279.9303,"EPHEMERIS_TYPE":0,"CLASSIFICATION_TYPE":"U","NORAD_CAT_ID":65390,"ELEMENT_SET_NO":999,"REV_AT_EPOCH":3025,"BSTAR":1.1889e-5,"MEAN_MOTION_DOT":1.11e-6,"MEAN_MOTION_DDOT":0},{"OBJECT_NAME":"CZ-4C R\/B","OBJECT_ID":"2022-039B","EPOCH":"2026-03-09T15:51:32.485824","MEAN_MOTION":15.03008334,"ECCENTRICITY":0.0113659,"INCLINATION":98.2525,"RA_OF_ASC_NODE":105.9247,"ARG_OF_PERICENTER":45.8852,"MEAN_ANOMALY":315.1654,"EPHEMERIS_TYPE":0,"CLASSIFICATION_TYPE":"U","NORAD_CAT_ID":52258,"ELEMENT_SET_NO":999,"REV_AT_EPOCH":21291,"BSTAR":0.00022979194,"MEAN_MOTION_DOT":3.483e-5,"MEAN_MOTION_DDOT":0}]
